OBJECT_NAME,OBJECT_ID,EPOCH,MEAN_MOTION,ECCENTRICITY,INCLINATION,RA_OF_ASC_NODE,ARG_OF_PERICENTER,MEAN_ANOMALY,EPHEMERIS_TYPE,CLASSIFICATION_TYPE,NORAD_CAT_ID,ELEMENT_SET_NO,REV_AT_EPOCH,BSTAR,MEAN_MOTION_DOT,MEAN_MOTION_DDOT
ONEWEB-0642,2023-029L,2026-06-09T03:17:59.066016,13.19724298,.0001244,87.9164,306.5812,120.4667,239.6588,0,U,55806,999,15784,.1091E-3,.57E-6,0
ONEWEB-0643,2023-029M,2026-06-09T01:48:53.740800,13.14502888,.0001598,87.8950,291.3476,120.8111,239.3176,0,U,55807,999,15832,-.43346E-3,-.148E-5,0
ONEWEB-0644,2023-029N,2026-06-08T21:43:37.328160,13.19723752,.0001599,87.9162,306.6291,105.2818,254.8492,0,U,55808,999,15781,-.36272E-5,.11E-6,0
ONEWEB-0645,2023-029P,2026-06-09T03:42:59.428800,13.19723721,.0001389,87.9163,306.5761,91.6742,268.4550,0,U,55809,999,15784,-.7492E-4,-.17E-6,0
ONEWEB-0646,2023-029Q,2026-06-09T02:18:51.379200,13.19724957,.0001609,87.9162,306.5879,104.2816,255.8496,0,U,55810,999,15782,-.3485E-4,-.1E-7,0
ONEWEB-0648,2023-029R,2026-06-09T02:52:48.330048,13.14504731,.0000928,87.8959,291.3115,102.4616,257.6617,0,U,55811,999,15833,.65648E-3,.256E-5,0
ONEWEB-0649,2023-029S,2026-06-09T02:55:14.007360,13.19724487,.0001579,87.9162,306.5809,96.4931,263.6382,0,U,55812,999,15786,.16029E-3,.77E-6,0
ONEWEB-0650,2023-029T,2026-06-09T02:48:23.538240,13.19724641,.0001354,87.9162,306.5842,108.6837,251.4443,0,U,55813,999,15783,.10442E-3,.55E-6,0
ONEWEB-0652,2023-029U,2026-06-09T02:25:24.671136,13.14504792,.0002021,87.8954,291.3230,99.9259,260.2099,0,U,55814,999,15830,-.15299E-3,-.44E-6,0
ONEWEB-0653,2023-029V,2026-06-09T02:02:34.756800,13.14502992,.0001887,87.8955,291.3239,97.0654,263.0690,0,U,55815,999,15833,-.58257E-3,-.203E-5,0
ONEWEB-0654,2023-029W,2026-06-09T01:55:44.058720,13.14503505,.0002199,87.8957,291.3211,94.3342,265.8039,0,U,55816,999,15835,-.57769E-3,-.201E-5,0
ONEWEB-0656,2023-029X,2026-06-09T00:32:39.667776,13.20772662,.0002346,87.9192,276.0567,95.8952,264.2449,0,U,55817,999,16007,.13296E-3,.67E-6,0
ONEWEB-0657,2023-029Y,2026-06-09T02:41:35.806272,13.19724443,.0002428,87.9160,306.5836,107.2382,252.9016,0,U,55818,999,15784,.13994E-3,.69E-6,0
ONEWEB-0658,2023-029Z,2026-06-09T02:34:46.146720,13.19724631,.0001517,87.9171,306.5595,107.0426,253.0873,0,U,55819,999,15785,.20942E-4,.21E-6,0
ONEWEB-0660,2023-029AA,2026-06-09T01:23:46.044384,13.14502784,.0001588,87.8968,291.3178,93.0054,267.1258,0,U,55820,999,15833,.4225E-3,.169E-5,0
ONEWEB-0661,2023-029AB,2026-06-09T02:14:00.602592,13.14502471,.0001729,87.8946,291.3573,91.2550,268.8778,0,U,55821,999,15832,-.37895E-3,-.128E-5,0
ONEWEB-0662,2023-029AC,2026-06-09T03:04:14.752992,13.14502003,.0001593,87.8947,291.3564,94.0597,266.0715,0,U,55822,999,15837,.67066E-3,.261E-5,0
ONEWEB-0663,2023-029AD,2026-06-09T01:22:02.543232,13.20868657,.0001468,87.9194,276.1219,100.7952,259.3346,0,U,55823,999,16007,.10076E-3,.54E-6,0
ONEWEB-0664,2023-029AE,2026-06-09T02:02:20.253696,13.20769872,.0001941,87.9178,276.0980,85.9514,274.1842,0,U,55824,999,16007,-.10988E-3,-.32E-6,0
ONEWEB-0665,2023-029AF,2026-06-08T20:40:36.967008,13.14502601,.0001557,87.8949,291.3842,96.3779,263.7528,0,U,55825,999,15831,-.47832E-3,-.165E-5,0
ONEWEB-0666,2023-029AG,2026-06-09T01:52:38.862048,13.20770395,.0002575,87.9181,276.0891,110.6264,249.5145,0,U,55826,999,16008,-.729E-4,-.17E-6,0
ONEWEB-0667,2023-029AH,2026-06-09T01:45:23.144256,13.20771031,.000182,87.9194,276.0470,96.6003,263.5338,0,U,55827,999,16007,.49201E-4,.33E-6,0
ONEWEB-0669,2023-029AJ,2026-06-09T01:38:06.444960,13.20771457,.0002376,87.9189,276.0598,90.5715,269.5691,0,U,55828,999,16007,.26243E-4,.24E-6,0
ONEWEB-0670,2023-029AK,2026-06-09T01:37:28.524000,13.14502521,.0001775,87.8950,291.3602,86.3498,273.7835,0,U,55829,999,15836,-.41477E-4,-.3E-7,0
ONEWEB-0671,2023-029AL,2026-06-08T21:00:23.952672,13.19723941,.0001683,87.9164,306.6322,93.2013,266.9312,0,U,55830,999,15780,-.84823E-4,-.21E-6,0
ONEWEB-0672,2023-029AM,2026-06-09T01:30:49.640256,13.20772215,.0002199,87.9187,276.0540,101.8684,258.2696,0,U,55831,999,16007,-.27372E-4,.2E-7,0
ONEWEB-0673,2023-029AN,2026-06-09T03:44:08.547072,13.19726329,.0001746,87.9172,306.5674,93.4835,266.6497,0,U,55832,999,15784,.28795E-4,.24E-6,0
ONEWEB-0674,2023-029AP,2026-06-09T02:41:24.880992,13.14503821,.000182,87.8946,291.3285,86.5705,273.5633,0,U,55833,999,15835,.48402E-3,.192E-5,0
ONEWEB-0675,2023-029AQ,2026-06-09T02:16:34.248576,13.19724717,.0001975,87.9162,306.5898,104.7214,255.4138,0,U,55834,999,15785,.12537E-5,.13E-6,0
ONEWEB-0720,2023-029AR,2026-06-09T03:54:22.017312,13.19723790,.0001554,87.9162,306.5764,100.2392,259.8916,0,U,55835,999,15778,.11173E-3,.58E-6,0
