ONEWEB-0642             
1 55806U 23029L   26160.13748919  .00000057  00000+0  10910-3 0  9992
2 55806  87.9164 306.5812 0001244 120.4667 239.6588 13.19724298157845
ONEWEB-0643             
1 55807U 23029M   26160.07562200 -.00000148  00000+0 -43346-3 0  9995
2 55807  87.8950 291.3476 0001598 120.8111 239.3176 13.14502888158323
ONEWEB-0644             
1 55808U 23029N   26159.90529315  .00000011  00000+0 -36272-5 0  9996
2 55808  87.9162 306.6291 0001599 105.2818 254.8492 13.19723752157813
ONEWEB-0645             
1 55809U 23029P   26160.15485450 -.00000017  00000+0 -74920-4 0  9995
2 55809  87.9163 306.5761 0001389  91.6742 268.4550 13.19723721157842
ONEWEB-0646             
1 55810U 23029Q   26160.09642800 -.00000001  00000+0 -34850-4 0  9995
2 55810  87.9162 306.5879 0001609 104.2816 255.8496 13.19724957157820
ONEWEB-0648             
1 55811U 23029R   26160.12000382  .00000256  00000+0  65648-3 0  9991
2 55811  87.8959 291.3115 0000928 102.4616 257.6617 13.14504731158332
ONEWEB-0649             
1 55812U 23029S   26160.12168990  .00000077  00000+0  16029-3 0  9992
2 55812  87.9162 306.5809 0001579  96.4931 263.6382 13.19724487157864
ONEWEB-0650             
1 55813U 23029T   26160.11693910  .00000055  00000+0  10442-3 0  9996
2 55813  87.9162 306.5842 0001354 108.6837 251.4443 13.19724641157836
ONEWEB-0652             
1 55814U 23029U   26160.10097999 -.00000044  00000+0 -15299-3 0  9996
2 55814  87.8954 291.3230 0002021  99.9259 260.2099 13.14504792158305
ONEWEB-0653             
1 55815U 23029V   26160.08512450 -.00000203  00000+0 -58257-3 0  9996
2 55815  87.8955 291.3239 0001887  97.0654 263.0690 13.14502992158334
ONEWEB-0654             
1 55816U 23029W   26160.08037105 -.00000201  00000+0 -57769-3 0  9991
2 55816  87.8957 291.3211 0002199  94.3342 265.8039 13.14503505158358
ONEWEB-0656             
1 55817U 23029X   26160.02268134  .00000067  00000+0  13296-3 0  9999
2 55817  87.9192 276.0567 0002346  95.8952 264.2449 13.20772662160071
ONEWEB-0657             
1 55818U 23029Y   26160.11221998  .00000069  00000+0  13994-3 0  9994
2 55818  87.9160 306.5836 0002428 107.2382 252.9016 13.19724443157848
ONEWEB-0658             
1 55819U 23029Z   26160.10747855  .00000021  00000+0  20942-4 0  9999
2 55819  87.9171 306.5595 0001517 107.0426 253.0873 13.19724631157851
ONEWEB-0660             
1 55820U 23029AA  26160.05817181  .00000169  00000+0  42250-3 0  9993
2 55820  87.8968 291.3178 0001588  93.0054 267.1258 13.14502784158338
ONEWEB-0661             
1 55821U 23029AB  26160.09306253 -.00000128  00000+0 -37895-3 0  9997
2 55821  87.8946 291.3573 0001729  91.2550 268.8778 13.14502471158329
ONEWEB-0662             
1 55822U 23029AC  26160.12794853  .00000261  00000+0  67066-3 0  9998
2 55822  87.8947 291.3564 0001593  94.0597 266.0715 13.14502003158379
ONEWEB-0663             
1 55823U 23029AD  26160.05697388  .00000054  00000+0  10076-3 0  9995
2 55823  87.9194 276.1219 0001468 100.7952 259.3346 13.20868657160076
ONEWEB-0664             
1 55824U 23029AE  26160.08495664 -.00000032  00000+0 -10988-3 0  9992
2 55824  87.9178 276.0980 0001941  85.9514 274.1842 13.20769872160072
ONEWEB-0665             
1 55825U 23029AF  26159.86153897 -.00000165  00000+0 -47832-3 0  9991
2 55825  87.8949 291.3842 0001557  96.3779 263.7528 13.14502601158314
ONEWEB-0666             
1 55826U 23029AG  26160.07822757 -.00000017  00000+0 -72900-4 0  9996
2 55826  87.9181 276.0891 0002575 110.6264 249.5145 13.20770395160086
ONEWEB-0667             
1 55827U 23029AH  26160.07318454  .00000033  00000+0  49201-4 0  9995
2 55827  87.9194 276.0470 0001820  96.6003 263.5338 13.20771031160077
ONEWEB-0669             
1 55828U 23029AJ  26160.06813015  .00000024  00000+0  26243-4 0  9999
2 55828  87.9189 276.0598 0002376  90.5715 269.5691 13.20771457160073
ONEWEB-0670             
1 55829U 23029AK  26160.06769125 -.00000003  00000+0 -41477-4 0  9997
2 55829  87.8950 291.3602 0001775  86.3498 273.7835 13.14502521158361
ONEWEB-0671             
1 55830U 23029AL  26159.87527723 -.00000021  00000+0 -84823-4 0  9994
2 55830  87.9164 306.6322 0001683  93.2013 266.9312 13.19723941157806
ONEWEB-0672             
1 55831U 23029AM  26160.06307454  .00000002  00000+0 -27372-4 0  9999
2 55831  87.9187 276.0540 0002199 101.8684 258.2696 13.20772215160079
ONEWEB-0673             
1 55832U 23029AN  26160.15565448  .00000024  00000+0  28795-4 0  9992
2 55832  87.9172 306.5674 0001746  93.4835 266.6497 13.19726329157848
ONEWEB-0674             
1 55833U 23029AP  26160.11209353  .00000192  00000+0  48402-3 0  9991
2 55833  87.8946 291.3285 0001820  86.5705 273.5633 13.14503821158359
ONEWEB-0675             
1 55834U 23029AQ  26160.09484084  .00000013  00000+0  12537-5 0  9999
2 55834  87.9162 306.5898 0001975 104.7214 255.4138 13.19724717157856
ONEWEB-0720             
1 55835U 23029AR  26160.16275483  .00000058  00000+0  11173-3 0  9991
2 55835  87.9162 306.5764 0001554 100.2392 259.8916 13.19723790157784
